ONEWEB-0534             
1 55797U 23029B   26189.51730336  .00000114  00000+0  24895-3 0  9999
2 55797  87.9182 270.2178 0001991 100.5622 259.5736 13.20773907163964
ONEWEB-0556             
1 55798U 23029C   26189.52398906  .00001928  00000+0  47067-2 0  9993
2 55798  87.9183 270.2156 0001238 102.4124 257.7148 13.20796363163962
ONEWEB-0562             
1 55799U 23029D   26189.58633773 -.00000028  00000+0 -99964-4 0  9991
2 55799  87.9181 270.1838 0001556  76.9429 283.1878 13.20772004163973
ONEWEB-0563             
1 55800U 23029E   26189.58127347  .00000011  00000+0 -44025-5 0  9999
2 55800  87.9178 270.2161 0002084 108.1603 251.9757 13.20773566163963
ONEWEB-0564             
1 55801U 23029F   26188.74123577  .00000037  00000+0  58991-4 0  9991
2 55801  87.9177 270.3572 0001880  90.6861 269.4488 13.20772327163862
ONEWEB-0638             
1 55802U 23029G   26189.55382247  .00000229  00000+0  58208-3 0  9996
2 55802  87.8961 285.4924 0001450  95.2429 264.8867 13.14504933162201
ONEWEB-0639             
1 55803U 23029H   26189.26060660  .00000081  00000+0  16987-3 0  9991
2 55803  87.9182 300.7789 0002336 124.8698 235.2655 13.19726098161680
ONEWEB-0640             
1 55804U 23029J   26189.25885866  .00000262  00000+0  67273-3 0  9999
2 55804  87.8963 285.5420 0001398 111.2545 248.8734 13.14502517162184
ONEWEB-0641             
1 55805U 23029K   26189.55913955  .00000069  00000+0  13920-3 0  9999
2 55805  87.9191 300.7104 0002072 105.1982 254.9380 13.19726841161733
ONEWEB-0642             
1 55806U 23029L   26189.55441390  .00000092  00000+0  19624-3 0  9992
2 55806  87.9189 300.7221 0002457 118.2486 241.8895 13.19726122161729
ONEWEB-0643             
1 55807U 23029M   26189.53320136 -.00000120  00000+0 -35710-3 0  9993
2 55807  87.8962 285.4751 0002584 111.3481 248.7925 13.14502566162196
ONEWEB-0644             
1 55808U 23029N   26189.54967522 -.00000049  00000+0 -15566-3 0  9998
2 55808  87.9182 300.7239 0002164 108.3296 251.8073 13.19725860161724
ONEWEB-0645             
1 55809U 23029P   26189.26851949  .00000092  00000+0  19834-3 0  9991
2 55809  87.9185 300.7762 0001823 114.7632 245.3690 13.19725634161682
ONEWEB-0646             
1 55810U 23029Q   26189.28588961 -.00000021  00000+0 -85879-4 0  9993
2 55810  87.9185 300.7729 0002166 106.6897 253.4474 13.19726440161676
ONEWEB-0648             
1 55811U 23029R   26189.50148597  .00000157  00000+0  38969-3 0  9991
2 55811  87.8973 285.4571 0002108 126.0992 234.0334 13.14503587162191
ONEWEB-0649             
1 55812U 23029S   26189.53860511 -.00000003  00000+0 -38670-4 0  9994
2 55812  87.9187 300.7209 0001922 109.4105 250.7236 13.19726211161745
ONEWEB-0650             
1 55813U 23029T   26189.53386808 -.00000023  00000+0 -89395-4 0  9999
2 55813  87.9183 300.7243 0002356 115.4838 244.6539 13.19725770161716
ONEWEB-0652             
1 55814U 23029U   26189.55857392  .00000232  00000+0  59066-3 0  9994
2 55814  87.8954 285.4534 0002207 101.3071 258.8307 13.14502192162179
ONEWEB-0653             
1 55815U 23029V   26189.54270751  .00000028  00000+0  40598-4 0  9996
2 55815  87.8977 285.4527 0001938  98.5177 261.6172 13.14501949162206
ONEWEB-0654             
1 55816U 23029W   26189.53794855 -.00000036  00000+0 -13192-3 0  9992
2 55816  87.8974 285.4508 0001970  90.9983 269.1372 13.14501950162229
ONEWEB-0656             
1 55817U 23029X   26189.49204944  .00000076  00000+0  15510-3 0  9991
2 55817  87.9192 270.1852 0002019  86.7647 273.3718 13.20769843163968
ONEWEB-0657             
1 55818U 23029Y   26188.84683877 -.00004196  00000+0 -10525-1 0  9994
2 55818  87.9149 300.8589 0002875  65.6225 294.5208 13.19685404161636
ONEWEB-0658             
1 55819U 23029Z   26189.29695357 -.00000013  00000+0 -64590-4 0  9999
2 55819  87.9194 300.7473 0002178 108.2823 251.8547 13.19726096161705
ONEWEB-0660             
1 55820U 23029AA  26189.51574686 -.00000120  00000+0 -35716-3 0  9993
2 55820  87.8980 285.4503 0001822 108.0932 252.0396 13.14501926162205
ONEWEB-0661             
1 55821U 23029AB  26189.55064733  .00000095  00000+0  22225-3 0  9995
2 55821  87.8960 285.4845 0001752 105.2679 254.8645 13.14503191162193
ONEWEB-0662             
1 55822U 23029AC  26189.50941475  .00000025  00000+0  33819-4 0  9993
2 55822  87.8962 285.4978 0001837 109.5190 250.6138 13.14502444162238
ONEWEB-0663             
1 55823U 23029AD  26189.52417482 -.00000029  00000+0 -10332-3 0  9992
2 55823  87.9195 270.2498 0002029 110.6337 249.5014 13.20871206163960
ONEWEB-0664             
1 55824U 23029AE  26189.47860449  .00000089  00000+0  18711-3 0  9995
2 55824  87.9180 270.2378 0001585  98.5063 261.6250 13.20771967163957
ONEWEB-0665             
1 55825U 23029AF  26189.24300335  .00000126  00000+0  30457-3 0  9997
2 55825  87.8960 285.5262 0001889 108.7776 251.3559 13.14502557162177
ONEWEB-0666             
1 55826U 23029AG  26188.71428943  .00000044  00000+0  76510-4 0  9995
2 55826  87.9180 270.3802 0002667  89.2241 270.9198 13.20772498163863
