OBJECT_NAME,OBJECT_ID,EPOCH,MEAN_MOTION,ECCENTRICITY,INCLINATION,RA_OF_ASC_NODE,ARG_OF_PERICENTER,MEAN_ANOMALY,EPHEMERIS_TYPE,CLASSIFICATION_TYPE,NORAD_CAT_ID,ELEMENT_SET_NO,REV_AT_EPOCH,BSTAR,MEAN_MOTION_DOT,MEAN_MOTION_DDOT
ONEWEB-0534,2023-029B,2026-07-08T12:24:55.010304,13.20773907,.00019918,87.9182,270.2178,100.5622,259.5736,0,U,55797,999,16396,.24895123E-3,.114E-5,0
ONEWEB-0556,2023-029C,2026-07-08T12:34:32.654784,13.20796363,.00012381,87.9183,270.2156,102.4124,257.7148,0,U,55798,999,16396,.4706681E-2,.1928E-4,0
ONEWEB-0562,2023-029D,2026-07-08T14:04:19.579872,13.20772004,.00015568,87.9181,270.1838,76.9429,283.1878,0,U,55799,999,16397,-.99964143E-4,-.28E-6,0
ONEWEB-0563,2023-029E,2026-07-08T13:57:02.027808,13.20773566,.0002084,87.9178,270.2161,108.1603,251.9757,0,U,55800,999,16396,-.4402544E-5,.11E-6,0
ONEWEB-0564,2023-029F,2026-07-07T17:47:22.770528,13.20772327,.00018803,87.9177,270.3572,90.6861,269.4488,0,U,55801,999,16386,.58991399E-4,.37E-6,0
ONEWEB-0638,2023-029G,2026-07-08T13:17:30.261408,13.14504933,.00014507,87.8961,285.4924,95.2429,264.8867,0,U,55802,999,16220,.58208487E-3,.229E-5,0
ONEWEB-0639,2023-029H,2026-07-08T06:15:16.410240,13.19726098,.00023362,87.9182,300.7789,124.8698,235.2655,0,U,55803,999,16168,.16986574E-3,.81E-6,0
ONEWEB-0640,2023-029J,2026-07-08T06:12:45.388224,13.14502517,.00013982,87.8963,285.5420,111.2545,248.8734,0,U,55804,999,16218,.67272796E-3,.262E-5,0
ONEWEB-0641,2023-029K,2026-07-08T13:25:09.657120,13.19726841,.00020727,87.9191,300.7104,105.1982,254.9380,0,U,55805,999,16173,.13919699E-3,.69E-6,0
ONEWEB-0642,2023-029L,2026-07-08T13:18:21.360960,13.19726122,.00024576,87.9189,300.7221,118.2486,241.8895,0,U,55806,999,16172,.19623623E-3,.92E-6,0
ONEWEB-0643,2023-029M,2026-07-08T12:47:48.597504,13.14502566,.00025848,87.8962,285.4751,111.3481,248.7925,0,U,55807,999,16219,-.35710453E-3,-.12E-5,0
ONEWEB-0644,2023-029N,2026-07-08T13:11:31.939008,13.19725860,.00021643,87.9182,300.7239,108.3296,251.8073,0,U,55808,999,16172,-.15566093E-3,-.49E-6,0
ONEWEB-0645,2023-029P,2026-07-08T06:26:40.083936,13.19725634,.00018232,87.9185,300.7762,114.7632,245.3690,0,U,55809,999,16168,.19834172E-3,.92E-6,0
ONEWEB-0646,2023-029Q,2026-07-08T06:51:40.862304,13.19726440,.00021669,87.9185,300.7729,106.6897,253.4474,0,U,55810,999,16167,-.85879017E-4,-.21E-6,0
ONEWEB-0648,2023-029R,2026-07-08T12:02:08.387808,13.14503587,.0002108,87.8973,285.4571,126.0992,234.0334,0,U,55811,999,16219,.38969478E-3,.157E-5,0
ONEWEB-0649,2023-029S,2026-07-08T12:55:35.481504,13.19726211,.00019224,87.9187,300.7209,109.4105,250.7236,0,U,55812,999,16174,-.38670384E-4,-.3E-7,0
ONEWEB-0650,2023-029T,2026-07-08T12:48:46.202112,13.19725770,.00023562,87.9183,300.7243,115.4838,244.6539,0,U,55813,999,16171,-.89395427E-4,-.23E-6,0
ONEWEB-0652,2023-029U,2026-07-08T13:24:20.786688,13.14502192,.0002207,87.8954,285.4534,101.3071,258.8307,0,U,55814,999,16217,.59065797E-3,.232E-5,0
ONEWEB-0653,2023-029V,2026-07-08T13:01:29.928864,13.14501949,.00019385,87.8977,285.4527,98.5177,261.6172,0,U,55815,999,16220,.4059801E-4,.28E-6,0
ONEWEB-0654,2023-029W,2026-07-08T12:54:38.754720,13.14501950,.00019709,87.8974,285.4508,90.9983,269.1372,0,U,55816,999,16222,-.13191727E-3,-.36E-6,0
ONEWEB-0656,2023-029X,2026-07-08T11:48:33.071616,13.20769843,.00020198,87.9192,270.1852,86.7647,273.3718,0,U,55817,999,16396,.15509896E-3,.76E-6,0
ONEWEB-0657,2023-029Y,2026-07-07T20:19:26.869728,13.19685404,.00028754,87.9149,300.8589,65.6225,294.5208,0,U,55818,999,16163,-.10524779E-1,-.4196E-4,0
ONEWEB-0658,2023-029Z,2026-07-08T07:07:36.788448,13.19726096,.0002178,87.9194,300.7473,108.2823,251.8547,0,U,55819,999,16170,-.64589959E-4,-.13E-6,0
ONEWEB-0660,2023-029AA,2026-07-08T12:22:40.528704,13.14501926,.00018221,87.8980,285.4503,108.0932,252.0396,0,U,55820,999,16220,-.35715815E-3,-.12E-5,0
ONEWEB-0661,2023-029AB,2026-07-08T13:12:55.929312,13.14503191,.00017523,87.8960,285.4845,105.2679,254.8645,0,U,55821,999,16219,.22224829E-3,.95E-6,0
ONEWEB-0662,2023-029AC,2026-07-08T12:13:33.434400,13.14502444,.00018379,87.8962,285.4978,109.5190,250.6138,0,U,55822,999,16223,.33818659E-4,.25E-6,0
ONEWEB-0663,2023-029AD,2026-07-08T12:34:48.704448,13.20871206,.00020296,87.9195,270.2498,110.6337,249.5014,0,U,55823,999,16396,-.10331837E-3,-.29E-6,0
ONEWEB-0664,2023-029AE,2026-07-08T11:29:11.427936,13.20771967,.00015851,87.9180,270.2378,98.5063,261.6250,0,U,55824,999,16395,.18710904E-3,.89E-6,0
ONEWEB-0665,2023-029AF,2026-07-08T05:49:55.489440,13.14502557,.00018891,87.8960,285.5262,108.7776,251.3559,0,U,55825,999,16217,.30457148E-3,.126E-5,0
ONEWEB-0666,2023-029AG,2026-07-07T17:08:34.606752,13.20772498,.00026674,87.9180,270.3802,89.2241,270.9198,0,U,55826,999,16386,.76509572E-4,.44E-6,0
